[{"OBJECT_NAME":"IRIDIUM 110","OBJECT_ID":"2018-047F","EPOCH":"2026-03-09T16:39:54.331776","MEAN_MOTION":14.34217414,"ECCENTRICITY":0.00023666,"INCLINATION":86.3979,"RA_OF_ASC_NODE":130.0337,"ARG_OF_PERICENTER":86.5409,"MEAN_ANOMALY":273.6057,"EPHEMERIS_TYPE":0,"CLASSIFICATION_TYPE":"U","NORAD_CAT_ID":43481,"ELEMENT_SET_NO":999,"REV_AT_EPOCH":40821,"BSTAR":-8.01159e-6,"MEAN_MOTION_DOT":-3.0e-8,"MEAN_MOTION_DDOT":0},{"OBJECT_NAME":"NOAA 16 DEB","OBJECT_ID":"2000-055EU","EPOCH":"2026-03-09T10:01:49.012032","MEAN_MOTION":14.36974829,"ECCENTRICITY":0.00102092,"INCLINATION":99.0341,"RA_OF_ASC_NODE":238.5055,"ARG_OF_PERICENTER":267.0969,"MEAN_ANOMALY":92.9047,"EPHEMERIS_TYPE":0,"CLASSIFICATION_TYPE":"U","NORAD_CAT_ID":41244,"ELEMENT_SET_NO":999,"REV_AT_EPOCH":52697,"BSTAR":0.0020660771,"MEAN_MOTION_DOT":6.082e-5,"MEAN_MOTION_DDOT":0}]
